0 COSMOS 2251 DEB
1 34119U 93036KQ  13281.80159985  .00002938  00000-0  10346-2 0  9313
2 34119 074.0558 169.2418 0041524 217.6446 211.1066 14.34800131242017
0 COSMOS 2251 DEB
1 34119U 93036KQ  13283.47404616  .00003796  00000-0  13333-2 0  9325
2 34119 074.0560 166.1811 0041416 214.0614 209.9174 14.34817118242255
0 COSMOS 2251 DEB
1 34119U 93036KQ  13285.77588279  .00003098  00000-0  10896-2 0  9335
2 34119 074.0565 161.9694 0041322 209.2654 219.7469 14.34830160242582
0 COSMOS 2251 DEB
1 34119U 93036KQ  13287.81063213  .00004607  00000-0  16155-2 0  9340
2 34119 074.0558 158.2452 0041151 204.8611 290.2383 14.34842708242871
0 COSMOS 2251 DEB
1 34119U 93036KQ  13290.72575833  .00004795  00000-0  16799-2 0  9353
2 34119 074.0557 152.9110 0041041 198.6611 228.4173 14.34868411243296
0 COSMOS 2251 DEB
1 34119U 93036KQ  13292.75793049  .00004449  00000-0  15592-2 0  9366
2 34119 074.0553 149.1912 0040946 194.3037 285.8505 14.34882972243584
0 COSMOS 2251 DEB
1 34119U 93036KQ  13295.06582219  .00004963  00000-0  17375-2 0  9371
2 34119 074.0552 144.9669 0040835 189.4450 327.5925 14.34899606243926
